CZ-4B R/B               
1 28059U 03049C   24363.03349067  .00001102  00000+0  26705-3 0  9996
2 28059  98.6385 331.2229 0049640 123.6268 236.9678 14.54348742123096
CZ-2C R/B               
1 28222U 04012C   24362.64779542  .00026226  00000+0  75387-3 0  9994
2 28222  97.7900  25.2826 0030372  89.4393 271.0330 15.35325237136682
SL-16 R/B               
1 28353U 04021B   24362.93540869  .00000379  00000+0  22235-3 0  9994
2 28353  71.0019  68.9932 0006237 322.5318  37.5369 14.14503320 61070
CZ-4B R/B               
1 28415U 04035C   24362.81192938  .00012060  00000+0  54306-3 0  9999
2 28415  97.4025  32.5535 0040525  69.6887 290.8696 15.20465427113339
CZ-2C R/B               
1 28480U 04046B   24362.81886464  .00000791  00000+0  31030-3 0  9994
2 28480  98.1842 294.2777 0140324   7.2330 353.0832 14.26660033 46200
ARIANE 5 R/B            
1 28499U 04049H   24362.82107629  .00002427  00000+0  28205-3 0  9995
2 28499  98.2077 145.7716 0085758 327.1517  32.4382 14.83753948 80975
CZ-2D R/B               
1 28738U 05024B   24362.96607563  .00026150  00000+0  76920-3 0  9998
2 28738  97.3673 359.9401 0007773 154.8306 205.3318 15.35037529 72299
SUZAKU (ASTRO-EII)      
1 28773U 05025A   24363.33697865  .00814296  30844-3  12954-2 0  9999
2 28773  31.3748 228.0177 0007191 304.2709  55.7281 16.02571196 77409
ALOS (DAICHI)           
1 28931U 06002A   24363.32140753  .00004170  00000+0  74314-3 0  9997
2 28931  98.0630 312.7257 0000769 100.3400 259.7892 14.67553648  9806
H-2A R/B                
1 28932U 06002B   24362.81773817  .00013969  00000+0  90594-3 0  9998
2 28932  98.2021 106.0664 0062376 278.6303  80.7859 15.06599330 28439
RESURS-DK 1             
1 29228U 06021A   24362.87281790  .00005767  00000+0  36610-3 0  9994
2 29228  69.9356 284.2284 0001618  36.5706 323.5569 15.09412882 21530
GENESIS 1               
1 29252U 06029A   24362.79991153  .00054841  00000+0  76379-3 0  9994
2 29252  64.5081 225.2340 0033372 300.1084  59.6750 15.55949089 20524
CZ-4B R/B               
1 29507U 06046C   24362.67657699  .00008294  00000+0  48953-3 0  9995
2 29507  97.6203  37.8061 0036910 337.6738  22.2883 15.11211770993904
CZ-2C R/B               
1 31114U 07010B   24362.83138075  .00000462  00000+0  23168-3 0  9994
2 31114  98.3574 127.9233 0060158 124.3172 236.3719 14.20010224917717
COSMO-SKYMED 1          
1 31598U 07023A   24363.49875327  .00001642  00000+0  21281-3 0  9990
2 31598  97.8860 183.8476 0001413  84.1538 275.9836 14.82143951949988
GENESIS 2               
1 31789U 07028A   24363.45976001  .00054669  00000+0  88534-3 0  9995
2 31789  64.4844 270.3855 0009674 295.7364  64.2777 15.52425440967469
COSMOS 2428             
1 31792U 07029A   24363.34621029  .00000270  00000+0  17088-3 0  9990
2 31792  70.9446  39.2661 0005203 159.7660 200.3668 14.12838216902546
SL-16 R/B               
1 31793U 07029B   24362.78267078 -.00000065  00000+0 -88957-5 0  9997
2 31793  70.9762  10.7279 0003120 275.9955 256.5246 14.14728815903575
KORONAS-FOTON           
1 33504U 09003A   24362.99468110  .00013408  00000+0  43152-3 0  9995
2 33504  82.4343   5.8637 0010908 276.5008  83.4991 15.32040316878761
CZ-2C R/B               
1 37731U 11030B   24363.44875258  .00004447  00000+0  59086-3 0  9996
2 37731  97.7921 320.7590 0053890 331.1242 181.3408 14.79243161725552
H-2A R/B                
1 38341U 12025E   24363.04650782  .00006735  00000+0  67071-3 0  9993
2 38341  98.4266 287.0943 0047114 299.4817  60.1704 14.91153471683131
CUSAT 2 & FALCON 9 R/B  
1 39271U 13055G   24363.29296267  .00264922  21108-4  88149-3 0  9991
2 39271  80.9060 197.2614 0134699 354.0701   5.8954 15.76992223595331
SHIJIAN-16 (SJ-16)      
1 39358U 13057A   24363.48632201  .00005363  00000+0  55182-3 0  9998
2 39358  74.9742 289.7432 0015532  91.1991 269.0975 14.90401325606542
SL-4 R/B                
1 39679U 14021B   24362.91003839  .00019501  00000+0  60243-3 0  9995
2 39679  51.6127 287.2795 0123708 326.3764  32.9409 15.26317145589284
ALOS-2                  
1 39766U 14029A   24363.41938836  .00005455  00000+0  73685-3 0  9997
2 39766  97.9224  97.2825 0001416 104.7960 255.3408 14.79467304572396
YAOGAN-29               
1 41038U 15069A   24363.49535250  .00001384  00000+0  18003-3 0  9998
2 41038  98.0466  19.0277 0001378  21.9269 338.2003 14.82277448491241
ASTRO-H (HITOMI)        
1 41337U 16012A   24363.06316543  .00006294  00000+0  41159-3 0  9997
2 41337  31.0020 286.8029 0010768 271.9838  87.9566 15.06303425486256
HXMT (HUIYAN)           
1 42758U 17034A   24363.45494223  .00017658  00000+0  80387-3 0  9997
2 42758  43.0146 275.3831 0012526 279.3344  80.6088 15.20348563416360
CZ-2C R/B               
1 43521U 18054D   24363.23991216  .00034695  00000+0  82300-3 0  9996
2 43521  35.1433 318.7346 0041436 104.0694 256.4639 15.39809217360672
SAOCOM 1A               
1 43641U 18076A   24363.50733773  .00001453  00000+0  18897-3 0  9991
2 43641  97.8845 186.9378 0001353  91.3604 268.7765 14.82173679336751
H-2A R/B                
1 43682U 18084L   24363.28268906  .00023693  00000+0  98476-3 0  9992
2 43682  98.8560 123.6658 0038078  78.8042 281.7467 15.23143632338950
SAOCOM 1B               
1 46265U 20059A   24363.47108590  .00001418  00000+0  18467-3 0  9993
2 46265  97.8850 186.0027 0001427  91.7088 268.4288 14.82145076234143
CSS (TIANHE)            
1 48274U 21035A   24363.38569526  .00046652  00000+0  54729-3 0  9990
2 48274  41.4680 339.7633 0002106 253.3280 106.7328 15.60674651209465
COSMOS 2550             
1 48865U 21056A   24363.47436021  .00014880  00000+0  45794-3 0  9992
2 48865  67.1452 280.5268 0008726 272.8649  87.1507 15.33777153196578
CZ-2C R/B               
1 52794U 22058K   24362.50643953  .00022379  00000+0  67686-3 0  9994
2 52794  50.1963   6.3793 0066646 191.5265 168.4173 15.31893590142661
XRISM                   
1 57800U 23137A   24362.94618225  .00009731  00000+0  65896-3 0  9996
2 57800  31.0007 215.7335 0009072 336.3653  23.6566 15.05210603 71780
2023-193D               
1 58556U 23193D   24363.50112969  .00251078  00000+0  90674-3 0  9999
2 58556  97.2473  19.4073 0004817 313.8780  46.2093 15.88000618 59934
ACS3                    
1 59588U 24077B   24363.06902146  .00019382  00000+0  20240-1 0  9992
2 59588  97.5176  27.6455 0054216 238.5969 120.9877 13.74522807 33954
